{"type": "FeatureCollection", "features": [ {"type": "Feature", "properties": {"norad_id": 33690, "name": "FENGYUN 1C DEB", "group": "fengyun-1c-debris", "lat": 61.70310932221016, "lon": -72.47769425895433, "alt_km": 713.0780382280891, "timestamp": "2025-12-18T15:47:11.510228+00:00", "meta": {"OBJECT_NAME": "FENGYUN 1C DEB", "OBJECT_ID": "1999-025DGB", "EPOCH": "2025-12-18T05:19:31.905984", "MEAN_MOTION": 14.51538272, "ECCENTRICITY": 0.00300479, "INCLINATION": 98.6138, "RA_OF_ASC_NODE": 90.7228, "ARG_OF_PERICENTER": 32.2004, "MEAN_ANOMALY": 328.1018, "EPHEMERIS_TYPE": 0, "CLASSIFICATION_TYPE": "U", "NORAD_CAT_ID": 33690, "ELEMENT_SET_NO": 999, "REV_AT_EPOCH": 93299, "BSTAR": 0.0017880769, "MEAN_MOTION_DOT": 7.153e-05, "MEAN_MOTION_DDOT": 0}, "tle": {"line1": "1 33690U 99025DGB 25352.22189706  .00007153  00000+0  17881-2 0  9990", "line2": "2 33690  98.6138  90.7228 0030047  32.2004 328.1018 14.51538272932994"}}, "geometry": {"type": "Point", "coordinates": [-72.47769425895433, 61.70310932221016]}}, {"type": "Feature", "properties": {"norad_id": 33693, "name": "FENGYUN 1C DEB", "group": "fengyun-1c-debris", "lat": 73.80011827906074, "lon": 136.1817478251635, "alt_km": 993.588309349384, "timestamp": "2025-12-18T15:47:11.510238+00:00", "meta": {"OBJECT_NAME": "FENGYUN 1C DEB", "OBJECT_ID": "1999-025DGE", "EPOCH": "2025-12-16T10:53:33.885024", "MEAN_MOTION": 13.71323317, "ECCENTRICITY": 0.02261218, "INCLINATION": 99.214, "RA_OF_ASC_NODE": 168.0309, "ARG_OF_PERICENTER": 349.0928, "MEAN_ANOMALY": 10.5362, "EPHEMERIS_TYPE": 0, "CLASSIFICATION_TYPE": "U", "NORAD_CAT_ID": 33693, "ELEMENT_SET_NO": 999, "REV_AT_EPOCH": 88282, "BSTAR": 0.0012847057, "MEAN_MOTION_DOT": 1.34e-05, "MEAN_MOTION_DDOT": 0}, "tle": {"line1": "1 33693U 99025DGE 25350.45386441  .00001340  00000+0  12847-2 0  9990", "line2": "2 33693  99.2140 168.0309 0226121 349.0928  10.5362 13.71323317882823"}}, "geometry": {"type": "Point", "coordinates": [136.1817478251635, 73.80011827906074]}}, {"type": "Feature", "properties": {"norad_id": 33698, "name": "FENGYUN 1C DEB", "group": "fengyun-1c-debris", "lat": 73.97716749269485, "lon": -82.57471941778205, "alt_km": 752.0805294403135, "timestamp": "2025-12-18T15:47:11.510249+00:00", "meta": {"OBJECT_NAME": "FENGYUN 1C DEB", "OBJECT_ID": "1999-025DGK", "EPOCH": "2025-12-17T03:08:00.198240", "MEAN_MOTION": 14.55728142, "ECCENTRICITY": 0.01375233, "INCLINATION": 99.6214, "RA_OF_ASC_NODE": 311.8731, "ARG_OF_PERICENTER": 204.7443, "MEAN_ANOMALY": 154.7112, "EPHEMERIS_TYPE": 0, "CLASSIFICATION_TYPE": "U", "NORAD_CAT_ID": 33698, "ELEMENT_SET_NO": 999, "REV_AT_EPOCH": 95700, "BSTAR": 0.00018900587, "MEAN_MOTION_DOT": 8.7e-06, "MEAN_MOTION_DDOT": 0}, "tle": {"line1": "1 33698U 99025DGK 25351.13055785  .00000870  00000+0  18901-3 0  9990", "line2": "2 33698  99.6214 311.8731 0137523 204.7443 154.7112 14.55728142957002"}}, "geometry": {"type": "Point", "coordinates": [-82.57471941778205, 73.97716749269485]}}, {"type": "Feature", "properties": {"norad_id": 33701, "name": "FENGYUN 1C DEB", "group": "fengyun-1c-debris", "lat": 80.99736835771964, "lon": -159.0975918563579, "alt_km": 859.7264783638557, "timestamp": "2025-12-18T15:47:11.510259+00:00", "meta": {"OBJECT_NAME": "FENGYUN 1C DEB", "OBJECT_ID": "1999-025DGN", "EPOCH": "2025-11-19T19:29:54.481632", "MEAN_MOTION": 14.02181122, "ECCENTRICITY": 0.01331995, "INCLINATION": 98.6598, "RA_OF_ASC_NODE": 279.346, "ARG_OF_PERICENTER": 252.9525, "MEAN_ANOMALY": 105.7013, "EPHEMERIS_TYPE": 0, "CLASSIFICATION_TYPE": "U", "NORAD_CAT_ID": 33701, "ELEMENT_SET_NO": 999, "REV_AT_EPOCH": 90184, "BSTAR": 0.0018411078, "MEAN_MOTION_DOT": 3.003e-05, "MEAN_MOTION_DDOT": 0}, "tle": {"line1": "1 33701U 99025DGN 25323.81243613  .00003003  00000+0  18411-2 0  9994", "line2": "2 33701  98.6598 279.3460 0133199 252.9525 105.7013 14.02181122901849"}}, "geometry": {"type": "Point", "coordinates": [-159.0975918563579, 80.99736835771964]}}, {"type": "Feature", "properties": {"norad_id": 33710, "name": "FENGYUN 1C DEB", "group": "fengyun-1c-debris", "lat": -28.53637393686939, "lon": 96.43693182373364, "alt_km": 897.3901599032997, "timestamp": "2025-12-18T15:47:11.510270+00:00", "meta": {"OBJECT_NAME": "FENGYUN 1C DEB", "OBJECT_ID": "1999-025DGX", "EPOCH": "2025-12-11T05:18:37.844640", "MEAN_MOTION": 14.11630786, "ECCENTRICITY": 0.00561161, "INCLINATION": 98.9793, "RA_OF_ASC_NODE": 84.0646, "ARG_OF_PERICENTER": 151.6019, "MEAN_ANOMALY": 208.823, "EPHEMERIS_TYPE": 0, "CLASSIFICATION_TYPE": "U", "NORAD_CAT_ID": 33710, "ELEMENT_SET_NO": 999, "REV_AT_EPOCH": 67635, "BSTAR": 0.0016514968, "MEAN_MOTION_DOT": 3.003e-05, "MEAN_MOTION_DDOT": 0}, "tle": {"line1": "1 33710U 99025DGX 25345.22127135  .00003003  00000+0  16515-2 0  9996", "line2": "2 33710  98.9793  84.0646 0056116 151.6019 208.8230 14.11630786676358"}}, "geometry": {"type": "Point", "coordinates": [96.43693182373364, -28.53637393686939]}}, {"type": "Feature", "properties": {"norad_id": 33711, "name": "FENGYUN 1C DEB", "group": "fengyun-1c-debris", "lat": -67.84276411522441, "lon": -157.2409899833831, "alt_km": 952.7677115164897, "timestamp": "2025-12-18T15:47:11.510281+00:00", "meta": {"OBJECT_NAME": "FENGYUN 1C DEB", "OBJECT_ID": "1999-025DGY", "EPOCH": "2025-12-18T02:44:12.833952", "MEAN_MOTION": 14.00926129, "ECCENTRICITY": 0.00960984, "INCLINATION": 99.1818, "RA_OF_ASC_NODE": 45.6145, "ARG_OF_PERICENTER": 33.4274, "MEAN_ANOMALY": 356.2165, "EPHEMERIS_TYPE": 0, "CLASSIFICATION_TYPE": "U", "NORAD_CAT_ID": 33711, "ELEMENT_SET_NO": 999, "REV_AT_EPOCH": 92007, "BSTAR": 0.00038891969, "MEAN_MOTION_DOT": 5.6e-06, "MEAN_MOTION_DDOT": 0}, "tle": {"line1": "1 33711U 99025DGY 25352.11403743  .00000560  00000+0  38892-3 0  9993", "line2": "2 33711  99.1818  45.6145 0096098  33.4274 356.2165 14.00926129920073"}}, "geometry": {"type": "Point", "coordinates": [-157.2409899833831, -67.84276411522441]}}, {"type": "Feature", "properties": {"norad_id": 33716, "name": "FENGYUN 1C DEB", "group": "fengyun-1c-debris", "lat": 33.434740311446504, "lon": 104.30073735295151, "alt_km": 845.4150140824859, "timestamp": "2025-12-18T15:47:11.510293+00:00", "meta": {"OBJECT_NAME": "FENGYUN 1C DEB", "OBJECT_ID": "1999-025DHD", "EPOCH": "2025-12-15T13:21:26.837568", "MEAN_MOTION": 14.32672501, "ECCENTRICITY": 0.00934659, "INCLINATION": 98.8741, "RA_OF_ASC_NODE": 275.2055, "ARG_OF_PERICENTER": 349.6765, "MEAN_ANOMALY": 10.2496, "EPHEMERIS_TYPE": 0, "CLASSIFICATION_TYPE": "U", "NORAD_CAT_ID": 33716, "ELEMENT_SET_NO": 999, "REV_AT_EPOCH": 65198, "BSTAR": 0.00019083481, "MEAN_MOTION_DOT": 4.97e-06, "MEAN_MOTION_DDOT": 0}, "tle": {"line1": "1 33716U 99025DHD 25349.55656062  .00000497  00000+0  19083-3 0  9996", "line2": "2 33716  98.8741 275.2055 0093465 349.6765  10.2496 14.32672501651984"}}, "geometry": {"type": "Point", "coordinates": [104.30073735295151, 33.434740311446504]}}, {"type": "Feature", "properties": {"norad_id": 33718, "name": "FENGYUN 1C DEB", "group": "fengyun-1c-debris", "lat": 73.84167140689691, "lon": 43.67181502182492, "alt_km": 907.433759775693, "timestamp": "2025-12-18T15:47:11.510304+00:00", "meta": {"OBJECT_NAME": "FENGYUN 1C DEB", "OBJECT_ID": "1999-025DHF", "EPOCH": "2025-12-18T00:04:25.262688", "MEAN_MOTION": 14.0809831, "ECCENTRICITY": 0.00981974, "INCLINATION": 99.6596, "RA_OF_ASC_NODE": 78.9743, "ARG_OF_PERICENTER": 305.2274, "MEAN_ANOMALY": 53.9731, "EPHEMERIS_TYPE": 0, "CLASSIFICATION_TYPE": "U", "NORAD_CAT_ID": 33718, "ELEMENT_SET_NO": 999, "REV_AT_EPOCH": 69260, "BSTAR": 0.0011739405, "MEAN_MOTION_DOT": 2.039e-05, "MEAN_MOTION_DDOT": 0}, "tle": {"line1": "1 33718U 99025DHF 25352.00307017  .00002039  00000+0  11739-2 0  9998", "line2": "2 33718  99.6596  78.9743 0098197 305.2274  53.9731 14.08098310692608"}}, "geometry": {"type": "Point", "coordinates": [43.67181502182492, 73.84167140689691]}}, {"type": "Feature", "properties": {"norad_id": 33719, "name": "FENGYUN 1C DEB", "group": "fengyun-1c-debris", "lat": -79.66576025125067, "lon": 110.48628791166938, "alt_km": 839.3446482028421, "timestamp": "2025-12-18T15:47:11.510315+00:00", "meta": {"OBJECT_NAME": "FENGYUN 1C DEB", "OBJECT_ID": "1999-025DHG", "EPOCH": "2025-12-17T03:12:31.137408", "MEAN_MOTION": 14.23494358, "ECCENTRICITY": 0.00303772, "INCLINATION": 98.7734, "RA_OF_ASC_NODE": 51.0904, "ARG_OF_PERICENTER": 67.7367, "MEAN_ANOMALY": 322.0678, "EPHEMERIS_TYPE": 0, "CLASSIFICATION_TYPE": "U", "NORAD_CAT_ID": 33719, "ELEMENT_SET_NO": 999, "REV_AT_EPOCH": 92076, "BSTAR": 0.00068814911, "MEAN_MOTION_DOT": 1.528e-05, "MEAN_MOTION_DDOT": 0}, "tle": {"line1": "1 33719U 99025DHG 25351.13369372  .00001528  00000+0  68815-3 0  9994", "line2": "2 33719  98.7734  51.0904 0030377  67.7367 322.0678 14.23494358920763"}}, "geometry": {"type": "Point", "coordinates": [110.48628791166938, -79.66576025125067]}}, {"type": "Feature", "properties": {"norad_id": 33722, "name": "FENGYUN 1C DEB", "group": "fengyun-1c-debris", "lat": 51.72200667963887, "lon": -162.1327721395691, "alt_km": 847.6811495534575, "timestamp": "2025-12-18T15:47:11.510325+00:00", "meta": {"OBJECT_NAME": "FENGYUN 1C DEB", "OBJECT_ID": "1999-025DHK", "EPOCH": "2025-12-17T07:04:26.450976", "MEAN_MOTION": 14.2137295, "ECCENTRICITY": 0.01583197, "INCLINATION": 98.5739, "RA_OF_ASC_NODE": 5.5214, "ARG_OF_PERICENTER": 238.4084, "MEAN_ANOMALY": 120.1558, "EPHEMERIS_TYPE": 0, "CLASSIFICATION_TYPE": "U", "NORAD_CAT_ID": 33722, "ELEMENT_SET_NO": 999, "REV_AT_EPOCH": 92212, "BSTAR": 0.00051688444, "MEAN_MOTION_DOT": 1.237e-05, "MEAN_MOTION_DDOT": 0}, "tle": {"line1": "1 33722U 99025DHK 25351.29475059  .00001237  00000+0  51688-3 0  9992", "line2": "2 33722  98.5739   5.5214 0158319 238.4084 120.1558 14.21372950922125"}}, "geometry": {"type": "Point", "coordinates": [-162.1327721395691, 51.72200667963887]}}]}